[{"OBJECT_NAME":"OBJECT AS","OBJECT_ID":"2023-085AS","EPOCH":"2026-03-09T22:43:55.521696","MEAN_MOTION":15.33336233,"ECCENTRICITY":0.00083243,"INCLINATION":97.4812,"RA_OF_ASC_NODE":180.8852,"ARG_OF_PERICENTER":80.6036,"MEAN_ANOMALY":279.6147,"EPHEMERIS_TYPE":0,"CLASSIFICATION_TYPE":"U","NORAD_CAT_ID":57044,"ELEMENT_SET_NO":999,"REV_AT_EPOCH":15162,"BSTAR":0.00067677795,"MEAN_MOTION_DOT":0.00021782,"MEAN_MOTION_DDOT":0},{"OBJECT_NAME":"STARLINK-33811","OBJECT_ID":"2025-071M","EPOCH":"2026-03-09T11:36:53.715456","MEAN_MOTION":15.30172945,"ECCENTRICITY":0.00012429,"INCLINATION":53.1576,"RA_OF_ASC_NODE":141.2165,"ARG_OF_PERICENTER":78.1832,"MEAN_ANOMALY":281.9308,"EPHEMERIS_TYPE":0,"CLASSIFICATION_TYPE":"U","NORAD_CAT_ID":63504,"ELEMENT_SET_NO":999,"REV_AT_EPOCH":5267,"BSTAR":0.00055027257,"MEAN_MOTION_DOT":0.0001596,"MEAN_MOTION_DDOT":0}]
